OBJECT_NAME,OBJECT_ID,EPOCH,MEAN_MOTION,ECCENTRICITY,INCLINATION,RA_OF_ASC_NODE,ARG_OF_PERICENTER,MEAN_ANOMALY,EPHEMERIS_TYPE,CLASSIFICATION_TYPE,NORAD_CAT_ID,ELEMENT_SET_NO,REV_AT_EPOCH,BSTAR,MEAN_MOTION_DOT,MEAN_MOTION_DDOT
IRIDIUM 154,2018-061F,2026-07-11T15:36:50.395392,14.34217635,.00023167,86.3942,46.5747,89.8976,270.2485,0,U,43574,999,41691,.54311258E-4,.172E-5,0
IRIDIUM 163,2018-061G,2026-07-11T15:09:26.400384,14.34217605,.00021716,86.3938,46.4971,85.0745,275.0699,0,U,43575,999,41688,.43043146E-4,.14E-5,0
IRIDIUM 156,2018-061H,2026-07-11T16:13:22.436832,14.34217697,.00020909,86.3937,46.4857,91.3584,268.7851,0,U,43576,999,41688,.28674714E-4,.1E-5,0
IRIDIUM 164,2018-061J,2026-07-11T15:45:58.644000,14.34217348,.00023052,86.3939,46.5346,89.3652,270.7808,0,U,43577,999,41692,.45338606E-4,.147E-5,0
IRIDIUM 159,2018-061K,2026-07-11T16:40:46.409376,14.34217189,.00021716,86.3938,46.4551,85.3518,274.7926,0,U,43578,999,41689,.4586239E-5,.33E-6,0
IRIDIUM 180,2019-002A,2026-07-11T11:38:39.063840,14.34217479,.00022374,86.3989,343.4395,90.9062,269.2391,0,U,43922,999,39247,.24010046E-4,.87E-6,0
IRIDIUM 176,2019-002B,2026-07-11T11:47:47.906880,14.72246139,.00023459,86.6106,343.3768,89.5366,270.6120,0,U,43923,999,40282,.65823512E-4,.44E-5,0
IRIDIUM 168,2019-002C,2026-07-10T08:42:02.613600,14.34217872,.00022436,86.3988,343.9865,90.7210,269.4243,0,U,43924,999,39229,.8973003E-5,.45E-6,0
IRIDIUM 173,2019-002D,2026-07-11T09:30:46.787904,14.34217448,.00020696,86.3986,343.4427,91.9171,268.2262,0,U,43925,999,39242,-.25118998E-4,-.51E-6,0
IRIDIUM 169,2019-002E,2026-07-11T14:19:17.675904,14.38613073,.00017821,86.4218,14.9849,100.5525,259.5874,0,U,43926,999,39373,.9236567E-5,.48E-6,0
IRIDIUM 172,2019-002F,2026-07-11T09:21:38.974752,14.34217770,.0002184,86.3984,343.4531,90.1296,270.0150,0,U,43927,999,39243,.41498658E-4,.136E-5,0
IRIDIUM 175,2019-002G,2026-07-11T17:51:11.876544,14.43626124,.00051334,86.4513,280.2568,122.1792,237.9908,0,U,43928,999,40252,.45982198E-4,.176E-5,0
IRIDIUM 171,2019-002H,2026-07-11T18:57:02.937312,14.34217569,.00022006,86.3996,343.5950,95.4245,264.7201,0,U,43929,999,39248,.17702994E-4,.69E-6,0
IRIDIUM 170,2019-002J,2026-07-11T11:56:41.119296,14.72246731,.00023094,86.6106,343.3765,85.6855,274.4626,0,U,43930,999,40283,.66893867E-4,.446E-5,0
IRIDIUM 167,2019-002K,2026-07-11T18:47:54.928896,14.34217743,.0002246,86.3988,343.3114,99.5262,260.6188,0,U,43931,999,39248,.22550045E-4,.83E-6,0
IRIDIUM 181,2023-068S,2026-07-11T17:14:28.724064,14.43311052,.00024246,86.4476,46.5324,84.2447,275.9030,0,U,56726,999,16597,.47990191E-4,.182E-5,0
IRIDIUM 177,2023-068T,2026-07-11T17:29:34.645344,14.80026841,.00021495,86.1983,317.1391,93.4743,266.6724,0,U,56727,999,16999,.74457107E-4,.59E-5,0
IRIDIUM 174,2023-068U,2026-07-11T11:38:47.889600,14.72255189,.00020424,86.6114,343.5314,85.0379,275.1071,0,U,56728,999,16959,.68150963E-4,.454E-5,0
IRIDIUM 178,2023-068V,2026-07-11T13:58:59.578464,14.80025030,.00023188,86.6533,15.1631,90.0623,270.0864,0,U,56729,999,16997,.24792026E-4,.214E-5,0
IRIDIUM 179,2023-068W,2026-07-11T13:51:18.338976,14.80033271,.00023009,86.6764,24.2174,92.0322,268.1163,0,U,56730,999,16997,.63042012E-4,.503E-5,0
