IRIDIUM 154             
1 43574U 18061F   26192.65058328  .00000172  00000+0  54311-4 0  9993
2 43574  86.3942  46.5747 0002316  89.8976 270.2485 14.34217635416914
IRIDIUM 163             
1 43575U 18061G   26192.63155556  .00000140  00000+0  43043-4 0  9998
2 43575  86.3938  46.4971 0002171  85.0745 275.0699 14.34217605416882
IRIDIUM 156             
1 43576U 18061H   26192.67595413  .00000100  00000+0  28675-4 0  9993
2 43576  86.3937  46.4857 0002090  91.3584 268.7851 14.34217697416886
IRIDIUM 164             
1 43577U 18061J   26192.65692875  .00000147  00000+0  45339-4 0  9999
2 43577  86.3939  46.5346 0002305  89.3652 270.7808 14.34217348416928
IRIDIUM 159             
1 43578U 18061K   26192.69498159  .00000033  00000+0  45862-5 0  9999
2 43578  86.3938  46.4551 0002171  85.3518 274.7926 14.34217189416897
IRIDIUM 180             
1 43922U 19002A   26192.48517435  .00000087  00000+0  24010-4 0  9994
2 43922  86.3989 343.4395 0002237  90.9062 269.2391 14.34217479392475
IRIDIUM 176             
1 43923U 19002B   26192.49152670  .00000440  00000+0  65824-4 0  9993
2 43923  86.6106 343.3768 0002345  89.5366 270.6120 14.72246139402828
IRIDIUM 168             
1 43924U 19002C   26191.36253025  .00000045  00000+0  89730-5 0  9999
2 43924  86.3988 343.9865 0002243  90.7210 269.4243 14.34217872392298
IRIDIUM 173             
1 43925U 19002D   26192.39637486 -.00000051  00000+0 -25119-4 0  9990
2 43925  86.3986 343.4427 0002069  91.9171 268.2262 14.34217448392423
IRIDIUM 169             
1 43926U 19002E   26192.59673236  .00000048  00000+0  92366-5 0  9999
2 43926  86.4218  14.9849 0001782 100.5525 259.5874 14.38613073393737
IRIDIUM 172             
1 43927U 19002F   26192.39003443  .00000136  00000+0  41499-4 0  9993
2 43927  86.3984 343.4531 0002184  90.1296 270.0150 14.34217770392432
IRIDIUM 175             
1 43928U 19002G   26192.74388746  .00000176  00000+0  45982-4 0  9990
2 43928  86.4513 280.2568 0005133 122.1792 237.9908 14.43626124402526
IRIDIUM 171             
1 43929U 19002H   26192.78961733  .00000069  00000+0  17703-4 0  9999
2 43929  86.3996 343.5950 0002200  95.4245 264.7201 14.34217569392482
IRIDIUM 170             
1 43930U 19002J   26192.49769814  .00000446  00000+0  66894-4 0  9999
2 43930  86.6106 343.3765 0002309  85.6855 274.4626 14.72246731402835
IRIDIUM 167             
1 43931U 19002K   26192.78327464  .00000083  00000+0  22550-4 0  9991
2 43931  86.3988 343.3114 0002246  99.5262 260.6188 14.34217743392483
IRIDIUM 181             
1 56726U 23068S   26192.71838801  .00000182  00000+0  47990-4 0  9994
2 56726  86.4476  46.5324 0002424  84.2447 275.9030 14.43311052165976
IRIDIUM 177             
1 56727U 23068T   26192.72887321  .00000590  00000+0  74457-4 0  9998
2 56727  86.1983 317.1391 0002149  93.4743 266.6724 14.80026841169996
IRIDIUM 174             
1 56728U 23068U   26192.48527650  .00000454  00000+0  68151-4 0  9991
2 56728  86.6114 343.5314 0002042  85.0379 275.1071 14.72255189169596
IRIDIUM 178             
1 56729U 23068V   26192.58263401  .00000214  00000+0  24792-4 0  9991
2 56729  86.6533  15.1631 0002318  90.0623 270.0864 14.80025030169975
IRIDIUM 179             
1 56730U 23068W   26192.57729559  .00000503  00000+0  63042-4 0  9995
2 56730  86.6764  24.2174 0002300  92.0322 268.1163 14.80033271169971
